      2.10          N: GNSS NAV DATA                        RINEX VERSION / TYPE
fic2rin                                 04/16/2019 00:19:29 PGM / RUN BY / DATE
                                                            END OF HEADER
 2 19  4 15  9 59 44.0-1.895087771118e-04-9.436007530894e-12 0.000000000000e+00
    2.000000000000e+00 2.718750000000e+00 5.114141595954e-09 1.021483457320e+00
   -6.705522537231e-08 1.891039335169e-02 2.862885594368e-06 5.153683488846e+03
    1.223840000000e+05-2.961605787277e-07-2.294921882445e+00-7.636845111847e-08
    9.540841413427e-01 3.212812500000e+02-1.748815966393e+00-8.879298429849e-09
    1.339341503235e-10 1.000000000000e+00 2.049000000000e+03 0.000000000000e+00
    2.400000000000e+00 0.000000000000e+00-2.048909664154e-08 2.000000000000e+00
    1.212000000000e+05 4.000000000000e+00
 2 19  4 15  9 59 28.0-1.895087771118e-04-9.436007530894e-12 0.000000000000e+00
    9.700000000000e+01 2.718750000000e+00 5.114141595954e-09 1.019149747495e+00
   -6.705522537231e-08 1.891039393377e-02 2.862885594368e-06 5.153683488846e+03
    1.223680000000e+05-2.961605787277e-07-2.294921739079e+00-7.636845111847e-08
    9.540841398797e-01 3.212812500000e+02-1.748815988337e+00-8.879298429849e-09
    1.339341503235e-10 1.000000000000e+00 2.049000000000e+03 0.000000000000e+00
    2.400000000000e+00 0.000000000000e+00-2.048909664154e-08 9.700000000000e+01
    1.219500000000e+05 4.000000000000e+00
20 19  4 15  9 59 44.0 5.239835008979e-04 3.410605131648e-13 0.000000000000e+00
    0.000000000000e+00-9.590625000000e+01 5.342722545839e-09 3.772474059373e-01
   -5.053356289864e-06 4.345416207798e-03 8.385628461838e-06 5.153683090210e+03
    1.223840000000e+05-2.048909664154e-08-1.304604803467e+00-3.725290298462e-08
    9.301261645625e-01 2.014687500000e+02 2.334278406191e+00-8.546784579312e-09
   -1.546492989069e-10 1.000000000000e+00 2.049000000000e+03 0.000000000000e+00
    2.400000000000e+00 0.000000000000e+00-8.847564458847e-09 0.000000000000e+00
    1.219500000000e+05 4.000000000000e+00
 2 19  4 15 11 59 28.0-1.895767636597e-04-9.436007530894e-12 0.000000000000e+00
    1.000000000000e+02 3.562500000000e+00 4.816272045634e-09 2.069233858913e+00
   -9.685754776001e-08 1.891006785445e-02 1.948326826096e-06 5.153686811447e+03
    1.295680000000e+05 1.825392246246e-07-2.294984387083e+00-2.644956111908e-07
    9.540877123257e-01 3.349375000000e+02-1.748722232843e+00-8.357133822454e-09
    1.971510692762e-10 1.000000000000e+00 2.049000000000e+03 0.000000000000e+00
    2.400000000000e+00 0.000000000000e+00-2.048909664154e-08 1.000000000000e+02
    1.224000000000e+05 4.000000000000e+00
12 19  4 15 11 59 28.0 2.510785125196e-04-3.410605131648e-12 0.000000000000e+00
    4.000000000000e+00-1.843750000000e+01 3.954450433019e-09 4.133016715364e-01
   -9.015202522278e-07 7.649579783902e-03 1.023337244987e-05 5.153664728165e+03
    1.295680000000e+05-1.993030309677e-07 2.023637479001e+00 8.754432201385e-08
    9.830835430213e-01 1.949062500000e+02 1.064705546060e+00-7.833540584123e-09
   -5.896674191577e-10 1.000000000000e+00 2.049000000000e+03 0.000000000000e+00
    2.400000000000e+00 0.000000000000e+00-1.210719347000e-08 4.000000000000e+00
    1.224000000000e+05 4.000000000000e+00
14 19  4 15 11 59 44.0-8.439784869552e-05 1.477928890381e-12 0.000000000000e+00
    2.000000000000e+01 4.596875000000e+01 4.582690887470e-09-2.571671427455e+00
    2.348795533180e-06 1.044047356118e-02 1.032091677189e-05 5.153690744400e+03
    1.295840000000e+05 1.545995473862e-07-5.964350071121e-02 1.676380634308e-08
    9.610143544024e-01 1.780312500000e+02-1.944211437422e+00-7.859613098719e-09
    4.935919886590e-10 1.000000000000e+00 2.049000000000e+03 0.000000000000e+00
    2.400000000000e+00 0.000000000000e+00-9.778887033463e-09 2.000000000000e+01
    1.224000000000e+05 4.000000000000e+00
20 19  4 15 11 59 44.0 5.239853635430e-04 3.410605131648e-13 0.000000000000e+00
    4.500000000000e+01-9.718750000000e+01 5.213074288326e-09 1.427085897799e+00
   -5.099922418594e-06 4.346951725893e-03 7.601454854012e-06 5.153687089920e+03
    1.295840000000e+05 7.636845111847e-08-1.304665878834e+00 1.117587089539e-08
    9.301254872314e-01 2.171562500000e+02 2.334618875504e+00-8.439280101319e-09
   -1.671498196038e-10 1.000000000000e+00 2.049000000000e+03 0.000000000000e+00
    2.400000000000e+00 0.000000000000e+00-8.847564458847e-09 4.500000000000e+01
    1.224000000000e+05 4.000000000000e+00
 1 19  4 15 12  0  0.0-2.023112028837e-04-8.185452315956e-12 0.000000000000e+00
    2.000000000000e+01-1.671875000000e+01 4.536260382024e-09 1.789089259937e+00
   -9.071081876755e-07 8.657471742481e-03 2.902001142502e-06 5.153653703690e+03
    1.296000000000e+05-2.346932888031e-07-2.227110279580e+00 3.539025783539e-08
    9.749387232083e-01 3.305937500000e+02 6.879954201937e-01-8.450709148814e-09
    1.089331089298e-10 1.000000000000e+00 2.049000000000e+03 0.000000000000e+00
    2.400000000000e+00 0.000000000000e+00 5.587935447693e-09 2.000000000000e+01
    1.224000000000e+05 4.000000000000e+00
 5 19  4 15 12  0  0.0 1.125968992710e-06-1.136868377216e-13 0.000000000000e+00
    1.200000000000e+01-1.151875000000e+02 4.709839040844e-09-1.535236050595e+00
   -5.997717380524e-06 5.588739411905e-03 8.830800652504e-06 5.153671775818e+03
    1.296000000000e+05 1.192092895508e-07-1.210573821647e+00-8.754432201385e-08
    9.493288895531e-01 1.966250000000e+02 7.029044177161e-01-8.171054642938e-09
   -1.460775132862e-10 1.000000000000e+00 2.049000000000e+03 0.000000000000e+00
    2.400000000000e+00 0.000000000000e+00-1.117587089539e-08 1.200000000000e+01
    1.224000000000e+05 4.000000000000e+00
16 19  4 15 12  0  0.0-3.283191472292e-05-2.842170943040e-12 0.000000000000e+00
    1.400000000000e+01-3.000000000000e+00 3.851946163305e-09-1.471839572529e+00
   -2.253800630569e-07 1.083235617261e-02 9.814277291298e-06 5.153556829453e+03
    1.296000000000e+05 1.862645149231e-07 2.042553959200e+00-1.341104507446e-07
    9.834517068368e-01 2.026562500000e+02 5.672490994704e-01-7.640318249923e-09
   -4.457328522767e-10 1.000000000000e+00 2.049000000000e+03 0.000000000000e+00
    2.400000000000e+00 0.000000000000e+00-1.071020960808e-08 1.400000000000e+01
    1.224000000000e+05 4.000000000000e+00
 9 19  4 15 12  0  0.0 4.284218885005e-04-6.480149750132e-12 0.000000000000e+00
    1.100000000000e+01 3.500000000000e+01 4.803057209469e-09-2.010833816625e+00
    1.907348632812e-06 1.312183216214e-03 1.149624586105e-05 5.153700000763e+03
    1.296000000000e+05 5.215406417847e-08-1.520684427867e-01 3.539025783539e-08
    9.529525317837e-01 1.559062500000e+02 1.748151456337e+00-8.037120492614e-09
    4.939491463932e-10 1.000000000000e+00 2.049000000000e+03 0.000000000000e+00
    2.400000000000e+00 0.000000000000e+00 1.396983861923e-09 1.100000000000e+01
    1.224000000000e+05 4.000000000000e+00
 7 19  4 15 12  0  0.0-5.275476723909e-06-7.503331289627e-12 0.000000000000e+00
    5.000000000000e+01 2.409375000000e+01 5.278434153684e-09 1.190368986069e+00
    1.467764377594e-06 1.247730583418e-02 5.122274160385e-06 5.153588155746e+03
    1.296000000000e+05-8.381903171539e-08 9.238914651822e-01 1.769512891769e-07
    9.557801212899e-01 2.818437500000e+02-2.469704853829e+00-8.645360113950e-09
   -2.242950570751e-10 1.000000000000e+00 2.049000000000e+03 0.000000000000e+00
    2.400000000000e+00 0.000000000000e+00-1.117587089539e-08 5.000000000000e+01
    1.224000000000e+05 4.000000000000e+00
 8 19  4 15 12  0  0.0-1.399996690452e-04-1.477928890381e-12 0.000000000000e+00
    5.500000000000e+01 8.412500000000e+01 4.046239970707e-09-2.096279916781e+00
    4.380941390991e-06 4.405788728036e-03 9.341165423393e-06 5.153728752136e+03
    1.296000000000e+05 1.117587089539e-08 2.989910826404e+00 5.774199962616e-08
    9.705426046409e-01 2.083750000000e+02-2.691322607704e-01-7.936402011571e-09
    3.257278535868e-10 1.000000000000e+00 2.049000000000e+03 0.000000000000e+00
    2.400000000000e+00 0.000000000000e+00 5.122274160385e-09 5.500000000000e+01
    1.224000000000e+05 4.000000000000e+00
 6 19  4 15 12  0  0.0 2.302024513483e-04-9.436007530894e-12 0.000000000000e+00
    7.600000000000e+01-9.562500000000e+00 4.474472094009e-09 1.969434493092e+00
   -4.358589649200e-07 1.617402187549e-03 2.512708306313e-06 5.153559749603e+03
    1.296000000000e+05 0.000000000000e+00-2.235392426439e+00 4.470348358154e-08
    9.746018877834e-01 3.370312500000e+02-1.111717179254e+00-8.359276768859e-09
    1.600066649198e-10 1.000000000000e+00 2.049000000000e+03 0.000000000000e+00
    2.400000000000e+00 0.000000000000e+00 4.190951585770e-09 7.600000000000e+01
    1.224000000000e+05 4.000000000000e+00
 3 19  4 15 12  0  0.0 1.882286742330e-04 2.273736754432e-13 0.000000000000e+00
    9.800000000000e+01-1.013750000000e+02 4.433041796842e-09 8.882858707063e-01
   -5.519017577171e-06 1.989410375245e-03 1.026317477226e-05 5.153548843384e+03
    1.296000000000e+05 2.607703208923e-08-1.184310844809e+00 3.166496753693e-08
    9.624648069567e-01 1.828437500000e+02 5.654763177870e-01-8.096765834225e-09
   -1.978653847446e-10 1.000000000000e+00 2.049000000000e+03 0.000000000000e+00
    2.400000000000e+00 0.000000000000e+00 1.862645149231e-09 9.800000000000e+01
    1.224000000000e+05 4.000000000000e+00
23 19  4 15 12  0  0.0-1.901159994304e-04 1.477928890381e-12 0.000000000000e+00
    8.000000000000e+00 3.234375000000e+01 4.937348517527e-09 2.549114187421e+00
    1.596286892891e-06 1.307419780642e-02 1.165643334389e-05 5.153607076645e+03
    1.296000000000e+05-1.862645149231e-09-1.567755192211e-01-1.750886440277e-07
    9.437628285843e-01 1.465937500000e+02-2.274347285545e+00-7.956760002420e-09
    4.785913638228e-10 1.000000000000e+00 2.049000000000e+03 0.000000000000e+00
    2.400000000000e+00 0.000000000000e+00-2.048909664154e-08 8.000000000000e+00
    1.224000000000e+05 4.000000000000e+00
